NORAD_CAT_ID,OBJECT_NAME,OBJECT_TYPE,EPOCH,MEAN_MOTION,ECCENTRICITY,INCLINATION,RA_OF_ASC_NODE,ARG_OF_PERICENTER,MEAN_ANOMALY,BSTAR,MEAN_MOTION_DOT,MEAN_MOTION_DDOT,TLE_LINE0,TLE_LINE1,TLE_LINE2,SEMIMAJOR_AXIS,PERIOD,APOGEE,PERIGEE,DECAYED
50848.0,STARLINK-3315,PAYLOAD,2024-02-08 02:08:22,15.08833092,0.0001569,53.2197,353.5838,98.5034,261.6136,9.5337e-06,-1.36e-06,0.0,0 STARLINK-3315,1 50848U 22001AX  24039.08914824 -.00000136  00000-0  95337-5 0  9997,2 50848  53.2197 353.5838 0001569  98.5034 261.6136 15.08833092116753,6917.902,95.438,540.852,538.681,0.0
50848.0,STARLINK-3315,PAYLOAD,2024-02-08 06:54:31,15.0883485,0.000159,53.2201,352.692,101.1957,258.9214,3.1283e-05,2.1e-06,0.0,0 STARLINK-3315,1 50848U 22001AX  24039.28786749  .00000210  00000-0  31283-4 0  9993,2 50848  53.2201 352.6920 0001590 101.1957 258.9214 15.08834850115477,6917.896,95.438,540.861,538.661,0.0
50848.0,STARLINK-3315,PAYLOAD,2024-02-09 03:34:32,15.08843863,0.0001822,53.2198,348.8293,120.6863,239.4309,3.763e-05,3.11e-06,0.0,0 STARLINK-3315,1 50848U 22001AX  24040.14898343  .00000311  00000-0  37630-4 0  9998,2 50848  53.2198 348.8293 0001822 120.6863 239.4309 15.08843863116915,6917.869,95.437,540.994,538.473,0.0
50848.0,STARLINK-3315,PAYLOAD,2024-02-09 19:28:23,15.08835845,0.0001741,53.2196,345.8614,80.2359,279.8829,0.00010153,1.328e-05,0.0,0 STARLINK-3315,1 50848U 22001AX  24040.81138859  .00001328  00000-0  10153-3 0  9990,2 50848  53.2196 345.8614 0001741  80.2359 279.8829 15.08835845117016,6917.893,95.438,540.962,538.554,0.0
50848.0,STARLINK-3315,PAYLOAD,2024-02-10 01:49:56,15.08837653,0.0001685,53.2198,344.6679,115.0675,245.0492,-4.6963e-07,-2.96e-06,0.0,0 STARLINK-3315,1 50848U 22001AX  24041.07635118 -.00000296  00000-0 -46963-6 0  9995,2 50848  53.2198 344.6679 0001685 115.0675 245.0492 15.08837653115749,6917.888,95.438,540.918,538.587,0.0
50848.0,STARLINK-3315,PAYLOAD,2024-02-11 04:51:29,15.0885308,0.000149,53.2197,339.6131,104.1192,255.9966,5.4935e-05,5.87e-06,0.0,0 STARLINK-3315,1 50848U 22001AX  24042.20242313  .00000587  00000-0  54935-4 0  9999,2 50848  53.2197 339.6131 0001490 104.1192 255.9966 15.08853080117225,6917.84,95.437,540.736,538.675,0.0
50848.0,STARLINK-3315,PAYLOAD,2024-02-12 03:06:53,15.0884711,0.0001662,53.2197,335.4494,80.1632,279.9547,0.0001235,1.678e-05,0.0,0 STARLINK-3315,1 50848U 22001AX  24043.12978464  .00001678  00000-0  12350-3 0  9990,2 50848  53.2197 335.4494 0001662  80.1632 279.9547 15.08847110117367,6917.859,95.437,540.873,538.574,0.0
50848.0,STARLINK-3315,PAYLOAD,2024-02-12 04:42:15,15.08856269,0.0001366,53.2193,335.1531,93.7024,266.4125,0.0002197,3.212e-05,0.0,0 STARLINK-3315,1 50848U 22001AX  24043.19601537  .00003212  00000-0  21970-3 0  9995,2 50848  53.2193 335.1531 0001366  93.7024 266.4125 15.08856269117377,6917.831,95.437,540.641,538.751,0.0
50848.0,STARLINK-3315,PAYLOAD,2024-02-13 01:22:18,15.08841132,0.000167,53.2199,331.2762,102.9022,257.2157,-8.4453e-05,-1.632e-05,0.0,0 STARLINK-3315,1 50848U 22001AX  24044.05715363 -.00001632  00000-0 -84453-4 0  9996,2 50848  53.2199 331.2762 0001670 102.9022 257.2157 15.08841132117506,6917.877,95.437,540.897,538.587,0.0
50848.0,STARLINK-3315,PAYLOAD,2024-02-13 12:29:59,15.08845162,0.0001665,53.2196,329.2037,97.7339,262.3842,-6.7037e-05,-1.355e-05,0.0,0 STARLINK-3315,1 50848U 22001AX  24044.52083173 -.00001355  00000-0 -67037-4 0  9996,2 50848  53.2196 329.2037 0001665  97.7339 262.3842 15.08845162116268,6917.865,95.437,540.881,538.578,0.0
50848.0,STARLINK-3315,PAYLOAD,2024-02-13 22:02:18,15.08849782,0.0001529,53.2175,327.4239,115.1478,244.9673,-1.0365e-05,-4.53e-06,0.0,0 STARLINK-3315,1 50848U 22001AX  24044.91826786 -.00000453  00000-0 -10365-4 0  9994,2 50848  53.2175 327.4239 0001529 115.1478 244.9673 15.08849782116324,6917.85,95.437,540.773,538.658,0.0
50848.0,STARLINK-3315,PAYLOAD,2024-02-14 04:23:49,15.08863024,0.0001468,53.2185,326.2296,99.4344,260.6814,6.3252e-05,7.19e-06,0.0,0 STARLINK-3315,1 50848U 22001AX  24045.18321381  .00000719  00000-0  63252-4 0  9991,2 50848  53.2185 326.2296 0001468  99.4344 260.6814 15.08863024117679,6917.81,95.436,540.691,538.659,0.0
50848.0,STARLINK-3315,PAYLOAD,2024-02-14 21:53:06,15.08833009,0.0001678,53.219,322.9658,81.7444,278.3739,9.1093e-06,-1.43e-06,0.0,0 STARLINK-3315,1 50848U 22001AX  24045.91187942 -.00000143  00000-0  91093-5 0  9992,2 50848  53.2190 322.9658 0001678  81.7444 278.3739 15.08833009116477,6917.902,95.438,540.928,538.606,0.0
50848.0,STARLINK-3315,PAYLOAD,2024-02-15 01:03:52,15.08836733,0.0001774,53.2185,322.3696,83.6821,276.4373,4.1298e-05,3.69e-06,0.0,0 STARLINK-3315,1 50848U 22001AX  24046.04435659  .00000369  00000-0  41298-4 0  9998,2 50848  53.2185 322.3696 0001774  83.6821 276.4373 15.08836733117802,6917.89,95.438,540.983,538.528,0.0
50848.0,STARLINK-3315,PAYLOAD,2024-02-15 04:14:38,15.08838523,0.0001695,53.2188,321.7687,96.2412,263.8773,7.0962e-05,8.41e-06,0.0,0 STARLINK-3315,1 50848U 22001AX  24046.17683332  .00000841  00000-0  70962-4 0  9990,2 50848  53.2188 321.7687 0001695  96.2412 263.8773 15.08838523116516,6917.885,95.438,540.922,538.577,0.0
50848.0,STARLINK-3315,PAYLOAD,2024-02-15 21:43:53,15.08831311,0.0001681,53.2192,318.4963,112.8067,247.3103,3.82e-05,3.2e-06,0.0,0 STARLINK-3315,1 50848U 22001AX  24046.90547988  .00000320  00000-0  38200-4 0  9998,2 50848  53.2192 318.4963 0001681 112.8067 247.3103 15.08831311116621,6917.907,95.438,540.935,538.609,0.0
50848.0,STARLINK-3315,PAYLOAD,2024-02-16 04:05:24,15.0885096,0.000136,53.2179,317.3097,90.6373,269.4775,1.5882e-05,-3.5e-07,0.0,0 STARLINK-3315,1 50848U 22001AX  24047.17042792 -.00000035  00000-0  15882-4 0  9996,2 50848  53.2179 317.3097 0001360  90.6373 269.4775 15.08850960117979,6917.847,95.437,540.653,538.771,0.0
50848.0,STARLINK-3315,PAYLOAD,2024-02-16 10:26:57,15.08849094,0.0001325,53.2178,316.1203,85.9482,274.1662,-2.3234e-05,-6.58e-06,0.0,0 STARLINK-3315,1 50848U 22001AX  24047.43538900 -.00000658  00000-0 -23234-4 0  9998,2 50848  53.2178 316.1203 0001325  85.9482 274.1662 15.08849094116707,6917.853,95.437,540.634,538.801,0.0
50848.0,STARLINK-3315,PAYLOAD,2024-02-16 18:23:54,15.08838392,0.0001674,53.2181,314.6357,93.8971,266.2212,-1.5504e-05,-5.35e-06,0.0,0 STARLINK-3315,1 50848U 22001AX  24047.76659893 -.00000535  00000-0 -15504-4 0  9994,2 50848  53.2181 314.6357 0001674  93.8971 266.2212 15.08838392118065,6917.885,95.438,540.908,538.592,0.0
50848.0,STARLINK-3315,PAYLOAD,2024-02-16 21:34:40,15.08837127,0.000173,53.218,314.0414,88.7812,271.3379,4.9966e-06,-2.09e-06,0.0,0 STARLINK-3315,1 50848U 22001AX  24047.89908060 -.00000209  00000-0  49966-5 0  9998,2 50848  53.2180 314.0414 0001730  88.7812 271.3379 15.08837127116774,6917.889,95.438,540.951,538.557,0.0
50848.0,STARLINK-3315,PAYLOAD,2024-02-17 10:17:45,15.08839762,0.0001307,53.2173,311.6624,81.4528,278.6612,-1.3839e-05,-5.08e-06,0.0,0 STARLINK-3315,1 50848U 22001AX  24048.42899803 -.00000508  00000-0 -13839-4 0  9994,2 50848  53.2173 311.6624 0001307  81.4528 278.6612 15.08839762116852,6917.881,95.438,540.65,538.842,0.0
50848.0,STARLINK-3315,PAYLOAD,2024-02-17 16:39:18,15.08829349,0.0001341,53.2182,310.4745,85.8587,274.2558,7.6242e-05,9.25e-06,0.0,0 STARLINK-3315,1 50848U 22001AX  24048.69396457  .00000925  00000-0  76242-4 0  9998,2 50848  53.2182 310.4745 0001341  85.8587 274.2558 15.08829349118206,6917.913,95.438,540.706,538.85,0.0
50848.0,STARLINK-3315,PAYLOAD,2024-02-17 21:25:27,15.08835126,0.0001419,53.2182,309.5828,96.883,263.2323,3.7606e-05,3.11e-06,0.0,0 STARLINK-3315,1 50848U 22001AX  24048.89268338  .00000311  00000-0  37606-4 0  9996,2 50848  53.2182 309.5828 0001419  96.8830 263.2323 15.08835126116921,6917.895,95.438,540.742,538.779,0.0
50848.0,STARLINK-3315,PAYLOAD,2024-02-18 03:46:59,15.08848925,0.0001448,53.2183,308.3929,95.637,264.4787,7.1219e-05,8.46e-06,0.0,0 STARLINK-3315,1 50848U 22001AX  24049.15763347  .00000846  00000-0  71219-4 0  9997,2 50848  53.2183 308.3929 0001448  95.6370 264.4787 15.08848925118277,6917.853,95.437,540.72,538.716,0.0
50848.0,STARLINK-3315,PAYLOAD,2024-02-18 10:08:31,15.08847882,0.0001111,53.2163,307.2004,77.9163,282.1954,7.3275e-05,8.79e-06,0.0,0 STARLINK-3315,1 50848U 22001AX  24049.42259249  .00000879  00000-0  73275-4 0  9998,2 50848  53.2163 307.2004 0001111  77.9163 282.1954 15.08847882117001,6917.856,95.437,540.49,538.953,0.0
50848.0,STARLINK-3315,PAYLOAD,2024-02-18 22:51:37,15.08839302,0.0001553,53.218,304.8232,77.3424,282.7742,5.2016e-06,-2.05e-06,0.0,0 STARLINK-3315,1 50848U 22001AX  24049.95252194 -.00000205  00000-0  52016-5 0  9993,2 50848  53.2180 304.8232 0001553  77.3424 282.7742 15.08839302117087,6917.883,95.438,540.822,538.673,0.0
50848.0,STARLINK-3315,PAYLOAD,2024-02-19 02:02:23,15.0884129,0.0001678,53.2196,304.2298,79.9768,280.1413,5.4268e-05,5.76e-06,0.0,0 STARLINK-3315,1 50848U 22001AX  24050.08499975  .00000576  00000-0  54268-4 0  9999,2 50848  53.2196 304.2298 0001678  79.9768 280.1413 15.08841290118411,6917.876,95.437,540.902,538.581,0.0
50848.0,STARLINK-3315,PAYLOAD,2024-02-19 09:59:19,15.08838073,0.0001273,53.2176,302.7424,90.8503,269.2636,3.5699e-05,2.8e-06,0.0,0 STARLINK-3315,1 50848U 22001AX  24050.41620048  .00000280  00000-0  35699-4 0  9992,2 50848  53.2176 302.7424 0001273  90.8503 269.2636 15.08838073117153,6917.886,95.438,540.632,538.871,0.0
50848.0,STARLINK-3315,PAYLOAD,2024-02-19 22:42:25,15.08831238,0.0001465,53.2169,300.3632,94.9807,265.1352,-2.8403e-05,-7.4e-06,0.0,0 STARLINK-3315,1 50848U 22001AX  24050.94612873 -.00000740  00000-0 -28403-4 0  9995,2 50848  53.2169 300.3632 0001465  94.9807 265.1352 15.08831238117230,6917.907,95.438,540.786,538.759,0.0
50848.0,STARLINK-3315,PAYLOAD,2024-02-20 09:50:06,15.08841975,0.0001312,53.2165,298.2807,94.6818,265.4324,-4.92e-05,-1.071e-05,0.0,0 STARLINK-3315,1 50848U 22001AX  24051.40980276 -.00001071  00000-0 -49200-4 0  9998,2 50848  53.2165 298.2807 0001312  94.6818 265.4324 15.08841975118619,6917.874,95.437,540.647,538.832,0.0
